start=new Date('2023-01-19T00:00:00.000Z').valueOf();
sats=[{"TIME_SYSTEM":"UTC","ELEMENT_SET_NO":"999","INCLINATION":"53.0538","OBJECT_TYPE":"PAYLOAD","PERIAPSIS":"545.519","CENTER_NAME":"EARTH","BSTAR":"0.00086471000000","APOAPSIS":"548.811","SEMIMAJOR_AXIS":"6925.300","EPOCH":"2023-01-18T16:53:09.917664","LAUNCH_DATE":"2021-03-24","COUNTRY_CODE":"US","GP_ID":"223453850","CLASSIFICATION_TYPE":"U","RCS_SIZE":"LARGE","REV_AT_EPOCH":"10274","ECCENTRICITY":"0.00023770","TLE_LINE2":"2 47979  53.0538  16.1675 0002377  86.7828 273.3432 15.06415900102745","MEAN_ELEMENT_THEORY":"SGP4","OBJECT_NAME":"STARLINK-2325","NORAD_CAT_ID":"47979","ARG_OF_PERICENTER":"86.7828","FILE":"3754254","MEAN_MOTION_DDOT":"0.0000000000000","MEAN_MOTION_DOT":"0.00012627","EPHEMERIS_TYPE":"0","RA_OF_ASC_NODE":"16.1675","OBJECT_ID":"2021-024C","MEAN_MOTION":"15.06415900","DECAY_DATE":null,"REF_FRAME":"TEME","TLE_LINE1":"1 47979U 21024C   23018.70358701  .00012627  00000-0  86471-3 0  9997","SITE":"AFETR","MEAN_ANOMALY":"273.3432","PERIOD":"95.591"},{"LAUNCH_DATE":"2021-03-24","SEMIMAJOR_AXIS":"6925.283","EPOCH":"2023-01-18T15:46:50.455488","NORAD_CAT_ID":"47980","OBJECT_NAME":"STARLINK-2312","ECCENTRICITY":"0.00019820","MEAN_ELEMENT_THEORY":"SGP4","TLE_LINE2":"2 47980  53.0532 356.4920 0001982  92.0262 268.0954 15.06421435103018","CLASSIFICATION_TYPE":"U","GP_ID":"223454101","RCS_SIZE":"LARGE","REV_AT_EPOCH":"10301","COUNTRY_CODE":"US","INCLINATION":"53.0532","TIME_SYSTEM":"UTC","ELEMENT_SET_NO":"999","APOAPSIS":"548.520","PERIAPSIS":"545.775","OBJECT_TYPE":"PAYLOAD","CENTER_NAME":"EARTH","BSTAR":"0.00161020000000","TLE_LINE1":"1 47980U 21024D   23018.65752842  .00023798  00000-0  16102-2 0  9991","MEAN_MOTION":"15.06421435","DECAY_DATE":null,"REF_FRAME":"TEME","OBJECT_ID":"2021-024D","PERIOD":"95.591","MEAN_ANOMALY":"268.0954","SITE":"AFETR","MEAN_MOTION_DDOT":"0.0000000000000","ARG_OF_PERICENTER":"92.0262","FILE":"3754254","RA_OF_ASC_NODE":"356.4920","EPHEMERIS_TYPE":"0","MEAN_MOTION_DOT":"0.00023798"},{"EPHEMERIS_TYPE":"0","RA_OF_ASC_NODE":"80.3200","MEAN_MOTION_DOT":"0.00002133","MEAN_MOTION_DDOT":"0.0000000000000","FILE":"3754254","ARG_OF_PERICENTER":"81.6130","PERIOD":"95.592","SITE":"AFETR","MEAN_ANOMALY":"278.4987","REF_FRAME":"TEME","DECAY_DATE":null,"MEAN_MOTION":"15.06407015","TLE_LINE1":"1 47981U 21024E   23018.88741466  .00002133  00000-0  16199-3 0  9994","OBJECT_ID":"2021-024E","APOAPSIS":"547.978","BSTAR":"0.00016199000000","OBJECT_TYPE":"PAYLOAD","PERIAPSIS":"546.406","CENTER_NAME":"EARTH","ELEMENT_SET_NO":"999","TIME_SYSTEM":"UTC","INCLINATION":"53.0546","TLE_LINE2":"2 47981  53.0546  80.3200 0001135  81.6130 278.4987 15.06407015101866","MEAN_ELEMENT_THEORY":"SGP4","ECCENTRICITY":"0.00011350","NORAD_CAT_ID":"47981","OBJECT_NAME":"STARLINK-2303","COUNTRY_CODE":"US","REV_AT_EPOCH":"10186","RCS_SIZE":"LARGE","GP_ID":"223454852","CLASSIFICATION_TYPE":"U","LAUNCH_DATE":"2021-03-24","SEMIMAJOR_AXIS":"6925.327","EPOCH":"2023-01-18T21:17:52.626624"},{"SEMIMAJOR_AXIS":"6925.315","EPOCH":"2023-01-18T16:03:24.261120","LAUNCH_DATE":"2021-03-24","COUNTRY_CODE":"US","GP_ID":"223453100","CLASSIFICATION_TYPE":"U","RCS_SIZE":"LARGE","REV_AT_EPOCH":"10275","ECCENTRICITY":"0.00021500","MEAN_ELEMENT_THEORY":"SGP4","TLE_LINE2":"2 47982  53.0539  11.3145 0002150  89.3091 270.8144 15.06410882102756","NORAD_CAT_ID":"47982","OBJECT_NAME":"STARLINK-2317","TIME_SYSTEM":"UTC","ELEMENT_SET_NO":"999","INCLINATION":"53.0539","OBJECT_TYPE":"PAYLOAD","CENTER_NAME":"EARTH","PERIAPSIS":"545.691","BSTAR":"0.00073240000000","APOAPSIS":"548.669","OBJECT_ID":"2021-024F","MEAN_MOTION":"15.06410882","REF_FRAME":"TEME","DECAY_DATE":null,"TLE_LINE1":"1 47982U 21024F   23018.66903080  .00010647  00000-0  73240-3 0  9992","SITE":"AFETR","MEAN_ANOMALY":"270.8144","PERIOD":"95.591","ARG_OF_PERICENTER":"89.3091","FILE":"3754254","MEAN_MOTION_DDOT":"0.0000000000000","MEAN_MOTION_DOT":"0.00010647","EPHEMERIS_TYPE":"0","RA_OF_ASC_NODE":"11.3145"},{"RA_OF_ASC_NODE":"17.6508","EPHEMERIS_TYPE":"0","MEAN_MOTION_DOT":"0.00040363","MEAN_MOTION_DDOT":"0.0000000000000","FILE":"3753951","ARG_OF_PERICENTER":"73.9008","PERIOD":"95.589","SITE":"AFETR","MEAN_ANOMALY":"286.2196","DECAY_DATE":null,"REF_FRAME":"TEME","MEAN_MOTION":"15.06446543","TLE_LINE1":"1 47985U 21024J   23018.40873027  .00040363  00000-0  27097-2 0  9990","OBJECT_ID":"2021-024J","APOAPSIS":"548.428","BSTAR":"0.00270970000000","CENTER_NAME":"EARTH","OBJECT_TYPE":"PAYLOAD","PERIAPSIS":"545.714","ELEMENT_SET_NO":"999","TIME_SYSTEM":"UTC","INCLINATION":"53.0523","TLE_LINE2":"2 47985  53.0523  17.6508 0001959  73.9008 286.2196 15.06446543102635","MEAN_ELEMENT_THEORY":"SGP4","ECCENTRICITY":"0.00019590","NORAD_CAT_ID":"47985","OBJECT_NAME":"STARLINK-2308","COUNTRY_CODE":"US","REV_AT_EPOCH":"10263","GP_ID":"223421179","CLASSIFICATION_TYPE":"U","RCS_SIZE":"LARGE","LAUNCH_DATE":"2021-03-24","SEMIMAJOR_AXIS":"6925.206","EPOCH":"2023-01-18T09:48:34.295328"},{"MEAN_ANOMALY":"271.3702","SITE":"AFETR","PERIOD":"95.590","OBJECT_ID":"2021-024N","TLE_LINE1":"1 47989U 21024N   23018.32808217  .00035151  00000-0  23647-2 0  9990","REF_FRAME":"TEME","DECAY_DATE":null,"MEAN_MOTION":"15.06434899","MEAN_MOTION_DOT":"0.00035151","RA_OF_ASC_NODE":"352.8524","EPHEMERIS_TYPE":"0","FILE":"3753522","ARG_OF_PERICENTER":"88.7509","MEAN_MOTION_DDOT":"0.0000000000000","REV_AT_EPOCH":"10250","RCS_SIZE":"LARGE","GP_ID":"223390077","CLASSIFICATION_TYPE":"U","COUNTRY_CODE":"US","NORAD_CAT_ID":"47989","OBJECT_NAME":"STARLINK-2305","MEAN_ELEMENT_THEORY":"SGP4","TLE_LINE2":"2 47989  53.0524 352.8524 0001939  88.7509 271.3702 15.06434899102505","ECCENTRICITY":"0.00019390","SEMIMAJOR_AXIS":"6925.242","EPOCH":"2023-01-18T07:52:26.299488","LAUNCH_DATE":"2021-03-24","BSTAR":"0.00236470000000","OBJECT_TYPE":"PAYLOAD","PERIAPSIS":"545.764","CENTER_NAME":"EARTH","APOAPSIS":"548.449","INCLINATION":"53.0524","ELEMENT_SET_NO":"999","TIME_SYSTEM":"UTC"},{"OBJECT_ID":"2021-024P","TLE_LINE1":"1 47990U 21024P   23018.61189822  .00019982  00000-0  13555-2 0  9999","MEAN_MOTION":"15.06427782","DECAY_DATE":null,"REF_FRAME":"TEME","MEAN_ANOMALY":"277.0508","SITE":"AFETR","PERIOD":"95.590","ARG_OF_PERICENTER":"83.0745","FILE":"3754254","MEAN_MOTION_DDOT":"0.0000000000000","MEAN_MOTION_DOT":"0.00019982","RA_OF_ASC_NODE":"351.5533","EPHEMERIS_TYPE":"0","SEMIMAJOR_AXIS":"6925.263","EPOCH":"2023-01-18T14:41:08.006208","LAUNCH_DATE":"2021-03-24","RCS_SIZE":"LARGE","GP_ID":"223454352","CLASSIFICATION_TYPE":"U","REV_AT_EPOCH":"10301","COUNTRY_CODE":"US","NORAD_CAT_ID":"47990","OBJECT_NAME":"STARLINK-2307","ECCENTRICITY":"0.00023160","MEAN_ELEMENT_THEORY":"SGP4","TLE_LINE2":"2 47990  53.0564 351.5533 0002316  83.0745 277.0508 15.06427782103014","INCLINATION":"53.0564","TIME_SYSTEM":"UTC","ELEMENT_SET_NO":"999","OBJECT_TYPE":"PAYLOAD","CENTER_NAME":"EARTH","PERIAPSIS":"545.525","BSTAR":"0.00135550000000","APOAPSIS":"548.732"},{"LAUNCH_DATE":"2021-03-24","SEMIMAJOR_AXIS":"6925.265","EPOCH":"2023-01-18T16:33:15.524064","NORAD_CAT_ID":"47991","OBJECT_NAME":"STARLINK-2279","TLE_LINE2":"2 47991  53.0504   6.2349 0001820  84.4141 275.7055 15.06427352102870","MEAN_ELEMENT_THEORY":"SGP4","ECCENTRICITY":"0.00018200","REV_AT_EPOCH":"10287","GP_ID":"223453601","RCS_SIZE":"LARGE","CLASSIFICATION_TYPE":"U","COUNTRY_CODE":"US","INCLINATION":"53.0504","ELEMENT_SET_NO":"999","TIME_SYSTEM":"UTC","APOAPSIS":"548.390","BSTAR":"0.00129880000000","OBJECT_TYPE":"PAYLOAD","PERIAPSIS":"545.869","CENTER_NAME":"EARTH","TLE_LINE1":"1 47991U 21024Q   23018.68976301  .00019131  00000-0  12988-2 0  9998","DECAY_DATE":null,"REF_FRAME":"TEME","MEAN_MOTION":"15.06427352","OBJECT_ID":"2021-024Q","PERIOD":"95.590","MEAN_ANOMALY":"275.7055","SITE":"AFETR","MEAN_MOTION_DDOT":"0.0000000000000","FILE":"3754254","ARG_OF_PERICENTER":"84.4141","EPHEMERIS_TYPE":"0","RA_OF_ASC_NODE":"6.2349","MEAN_MOTION_DOT":"0.00019131"},{"FILE":"3754254","ARG_OF_PERICENTER":"94.8528","MEAN_MOTION_DDOT":"0.0000000000000","MEAN_MOTION_DOT":"0.00009246","EPHEMERIS_TYPE":"0","RA_OF_ASC_NODE":"1.5181","OBJECT_ID":"2021-024R","TLE_LINE1":"1 47992U 21024R   23018.64416301  .00009246  00000-0  63875-3 0  9992","REF_FRAME":"TEME","DECAY_DATE":null,"MEAN_MOTION":"15.06403167","MEAN_ANOMALY":"265.2677","SITE":"AFETR","PERIOD":"95.592","INCLINATION":"53.0526","ELEMENT_SET_NO":"999","TIME_SYSTEM":"UTC","BSTAR":"0.00063875000000","PERIAPSIS":"545.894","OBJECT_TYPE":"PAYLOAD","CENTER_NAME":"EARTH","APOAPSIS":"548.513","SEMIMAJOR_AXIS":"6925.339","EPOCH":"2023-01-18T15:27:35.684064","LAUNCH_DATE":"2021-03-24","REV_AT_EPOCH":"10289","CLASSIFICATION_TYPE":"U","GP_ID":"223453851","RCS_SIZE":"LARGE","COUNTRY_CODE":"US","NORAD_CAT_ID":"47992","OBJECT_NAME":"STARLINK-2229","TLE_LINE2":"2 47992  53.0526   1.5181 0001891  94.8528 265.2677 15.06403167102893","MEAN_ELEMENT_THEORY":"SGP4","ECCENTRICITY":"0.00018910"},{"INCLINATION":"53.0544","TIME_SYSTEM":"UTC","ELEMENT_SET_NO":"999","OBJECT_TYPE":"PAYLOAD","PERIAPSIS":"545.828","CENTER_NAME":"EARTH","BSTAR":"0.00126380000000","APOAPSIS":"548.464","EPOCH":"2023-01-18T18:49:16.380768","SEMIMAJOR_AXIS":"6925.281","LAUNCH_DATE":"2021-03-24","GP_ID":"223454102","CLASSIFICATION_TYPE":"U","RCS_SIZE":"LARGE","REV_AT_EPOCH":"10240","COUNTRY_CODE":"US","NORAD_CAT_ID":"47993","OBJECT_NAME":"STARLINK-2273","ECCENTRICITY":"0.00019030","TLE_LINE2":"2 47993  53.0544  40.7887 0001903  84.8034 275.3172 15.06422161102401","MEAN_ELEMENT_THEORY":"SGP4","ARG_OF_PERICENTER":"84.8034","FILE":"3754254","MEAN_MOTION_DDOT":"0.0000000000000","MEAN_MOTION_DOT":"0.00018604","EPHEMERIS_TYPE":"0","RA_OF_ASC_NODE":"40.7887","OBJECT_ID":"2021-024S","TLE_LINE1":"1 47993U 21024S   23018.78421737  .00018604  00000-0  12638-2 0  9995","MEAN_MOTION":"15.06422161","REF_FRAME":"TEME","DECAY_DATE":null,"MEAN_ANOMALY":"275.3172","SITE":"AFETR","PERIOD":"95.591"}];
